GLOBALSTAR M023         
1 25621U 99004A   24308.58400198 -.00000047  00000+0  31403-3 0  9995
2 25621  52.0135  20.4008 0009765 351.0400 158.0552 12.62481146187230
GLOBALSTAR M040         
1 25622U 99004B   24308.52033343 -.00000039  00000+0  36372-3 0  9995
2 25622  51.9944  24.4110 0000491 217.4139 155.8001 12.61988744186762
GLOBALSTAR M036         
1 25623U 99004C   24308.78022405 -.00000053  00000+0  43957-3 0  9994
2 25623  51.9943 114.4351 0010457 345.0323  28.3248 11.86579960152206
GLOBALSTAR M038         
1 25624U 99004D   24308.47518942 -.00000034  00000+0  50593-3 0  9990
2 25624  52.0003   1.5897 0001466 305.8877  67.9230 12.32512440174548
GLOBALSTAR M022         
1 25649U 99012A   24308.08435883  .00000004  00000+0  10907-2 0  9995
2 25649  52.0022 185.5492 0003353  78.5223  70.0071 12.02490478149178
GLOBALSTAR M041         
1 25650U 99012B   24308.61066886 -.00000070  00000+0  19996-3 0  9991
2 25650  52.0036  58.6886 0002033 222.7468 137.3211 11.96660289151526
GLOBALSTAR M046         
1 25651U 99012C   24308.54437698 -.00000054  00000+0  38381-3 0  9998
2 25651  52.0025 142.6692 0002759 138.8714 248.8615 12.09402655156369
GLOBALSTAR M037         
1 25652U 99012D   24308.52743823  .00000023  00000+0  70549-3 0  9994
2 25652  51.9976 151.2737 0002867  61.3022 335.4343 12.62424281182774
